[{"OBJECT_NAME":"JILIN-1 06","OBJECT_ID":"2017-074C","EPOCH":"2026-03-09T22:46:57.173376","MEAN_MOTION":15.32444387,"ECCENTRICITY":0.00061285,"INCLINATION":97.4715,"RA_OF_ASC_NODE":171.0354,"ARG_OF_PERICENTER":223.0031,"MEAN_ANOMALY":137.0732,"EPHEMERIS_TYPE":0,"CLASSIFICATION_TYPE":"U","NORAD_CAT_ID":43024,"ELEMENT_SET_NO":999,"REV_AT_EPOCH":45863,"BSTAR":0.00028431628,"MEAN_MOTION_DOT":8.833e-5,"MEAN_MOTION_DDOT":0},{"OBJECT_NAME":"STARLINK-34189","OBJECT_ID":"2025-110AB","EPOCH":"2026-03-09T06:23:59.595072","MEAN_MOTION":15.30192207,"ECCENTRICITY":0.00011688,"INCLINATION":53.1615,"RA_OF_ASC_NODE":29.0131,"ARG_OF_PERICENTER":119.4968,"MEAN_ANOMALY":240.6149,"EPHEMERIS_TYPE":0,"CLASSIFICATION_TYPE":"U","NORAD_CAT_ID":64121,"ELEMENT_SET_NO":999,"REV_AT_EPOCH":4581,"BSTAR":0.00072221482,"MEAN_MOTION_DOT":0.00021086,"MEAN_MOTION_DDOT":0}]
